IRIDIUM 119             
1 42959U 17061E   24157.90594480  .00000163  00000+0  51298-4 0  9990
2 42959  86.3959 335.0334 0001859  89.5288 270.6121 14.34215730348560
IRIDIUM 107             
1 42960U 17061F   24157.92496948  .00000158  00000+0  49305-4 0  9994
2 42960  86.3959 335.0421 0001914  94.5516 265.5899 14.34214729348574
IRIDIUM 132             
1 42961U 17061G   24158.21040587  .00000267  00000+0  88384-4 0  9993
2 42961  86.3959 334.9076 0002015  99.0797 261.0626 14.34215442348610
IRIDIUM 136             
1 42962U 17061H   24158.03280275  .00000105  00000+0  30513-4 0  9996
2 42962  86.3960 334.9851 0001895  83.0615 277.0796 14.34216528348601
IRIDIUM 139             
1 42963U 17061J   24158.52751802  .00000246  00000+0  80800-4 0  9990
2 42963  86.3961 334.8282 0001904  99.0019 261.1393 14.34215777348686
IRIDIUM 125             
1 42964U 17061K   24158.51483235  .00000189  00000+0  60605-4 0  9999
2 42964  86.3962 334.8808 0001661  90.5121 269.6266 14.34215158348698
IRIDIUM 135             
1 43070U 17083A   24158.07036115  .00000389  00000+0  13187-3 0  9998
2 43070  86.3959 271.7145 0002623  96.8310 263.3185 14.34218628337924
IRIDIUM 138             
1 43071U 17083B   24157.60735057  .00000404  00000+0  13719-3 0  9997
2 43071  86.3946 271.6265 0001995  90.1045 270.0379 14.34218929337841
